STARLINK-4388           
1 53651U 22105D   26195.91670139 -.00083825  00000+0 -58350-3 0  9990
2 53651  97.6012  82.5110 0001163 106.8890 146.4918 15.74505694  5786
STARLINK-4374           
1 53652U 22105E   26195.61739200 -.00002801  00000+0 -19016-3 0  9994
2 53652  97.2841  73.1537 0001305  85.3598 274.7779 15.05678725212326
STARLINK-4390           
1 53653U 22105F   26195.67512613  .00028835  00000+0  45199-3 0  9992
2 53653  97.5999  80.2393 0004017 137.2627 222.8939 15.53665590212653
STARLINK-4420           
1 53654U 22105G   26195.67413068 -.00000374  00000+0 -22021-4 0  9997
2 53654  97.2845  74.2841 0001761  90.6836 269.4593 15.05654651212408
STARLINK-4470           
1 53655U 22105H   26195.91670139 -.00509976  00000+0 -92278-2 0  9990
2 53655  97.6020  82.2960 0001657  75.4170  87.8897 15.51439626  5891
STARLINK-4466           
1 53656U 22105J   26195.65893846 -.00000330  00000+0 -18975-4 0  9998
2 53656  97.2850  73.2313 0002483  89.2058 270.9454 15.05654013212338
STARLINK-4452           
1 53658U 22105L   26195.63259942 -.00000118  00000+0 -43032-5 0  9998
2 53658  97.2830  74.3321 0002417  81.4854 278.6648 15.05654552212400
STARLINK-4473           
1 53660U 22105N   26195.65062771 -.00000004  00000+0  36266-5 0  9999
2 53660  97.2849  73.2299 0002553  87.9498 272.2022 15.05654768212338
STARLINK-4472           
1 53661U 22105P   26195.61462648  .00001393  00000+0  10041-3 0  9995
2 53661  97.2838  73.1320 0001969  86.3747 273.7705 15.05649318212329
STARLINK-4357           
1 53662U 22105Q   26195.91670139 -.01042664  00000+0 -22309-1 0  9992
2 53662  97.6023  81.7330 0001186  72.3149 319.7878 15.47565150  5877
STARLINK-4457           
1 53663U 22105R   26195.89566267 -.00000120  00000+0 -43981-5 0  9999
2 53663  97.2849  74.5804 0002199  88.0190 272.1290 15.05657582212449
STARLINK-4471           
1 53664U 22105S   26195.66028289  .00000108  00000+0  11402-4 0  9998
2 53664  97.2835  74.2715 0002441  83.2434 276.9071 15.05654818212405
STARLINK-4334           
1 53665U 22105T   26195.91670139 -.00258307  00000+0 -30747-2 0  9993
2 53665  97.6042  82.0400 0001479  88.4453 261.8181 15.61879642  5913
STARLINK-4406           
1 53667U 22105V   26195.87616398  .00021553  00000+0  61398-3 0  9993
2 53667  97.5992  80.3528 0002389 122.1253 238.0223 15.36113878212686
STARLINK-4458           
1 53668U 22105W   26195.91670139 -.00343775  00000+0 -61626-2 0  9990
2 53668  97.6029  82.3126 0001993  88.2886 280.3700 15.51117239  5939
STARLINK-4464           
1 53669U 22105X   26195.91670139  .00169343  00000+0  20241-2 0  9994
2 53669  97.6013  80.5268 0001195  71.0467  35.0271 15.60437194  5853
STARLINK-4459           
1 53670U 22105Y   26195.61876252  .00001026  00000+0  74992-4 0  9994
2 53670  97.2840  74.3069 0001347  93.6938 266.4444 15.05652948212409
STARLINK-4440           
1 53671U 22105Z   26195.67278819  .00001054  00000+0  76909-4 0  9997
2 53671  97.2855  73.1741 0002133  96.6656 263.4814 15.05659890212337
STARLINK-4428           
1 53672U 22105AA  26195.64231971 -.00000491  00000+0 -30112-4 0  9995
2 53672  97.2843  73.2024 0002287  86.0178 274.1312 15.05652558212338
STARLINK-4456           
1 53673U 22105AB  26195.91670139  .00917669  00000+0  10450-1 0  9991
2 53673  97.6022  79.5141 0001040 105.9597  83.0029 15.59678862  5723
STARLINK-4620           
1 53674U 22105AC  26195.64785562 -.00000755  00000+0 -48461-4 0  9996
2 53674  97.2846  73.1905 0002585  86.2636 273.8887 15.05650569212335
STARLINK-4617           
1 53675U 22105AD  26195.66582631  .00000628  00000+0  47467-4 0  9993
2 53675  97.2852  74.3819 0002038  91.0718 269.0743 15.05642253212416
STARLINK-4621           
1 53676U 22105AE  26195.62847482 -.00000229  00000+0 -11971-4 0  9998
2 53676  97.2833  73.2066 0001736  93.3539 266.7887 15.05657449212335
STARLINK-4579           
1 53677U 22105AF  26195.62428731  .00000103  00000+0  11041-4 0  9998
2 53677  97.2839  74.2918 0002272  85.7478 274.4010 15.05657749212407
STARLINK-4632           
1 53679U 22105AH  26195.65753899  .00001011  00000+0  73982-4 0  9990
2 53679  97.2853  74.3927 0002118  91.0129 269.1342 15.05646799212411
STARLINK-4630           
1 53680U 22105AJ  26195.62151442 -.00000187  00000+0 -90877-5 0  9993
2 53680  97.2841  74.2700 0002077  81.1356 279.0106 15.05659614212401
STARLINK-4424           
1 53681U 22105AK  26195.91670139  .00467804  00000+0  21090-2 0  9994
2 53681  97.6003  82.0552 0001358 103.6001 312.8259 15.82835826  5935
STARLINK-4438           
1 53682U 22105AL  26195.64089795 -.00000424  00000+0 -25464-4 0  9991
2 53682  97.2837  74.2371 0002307  78.2942 281.8545 15.05652862212402
STARLINK-4625           
1 53683U 22105AM  26195.62013331 -.00007334  00000+0 -50352-3 0  9993
2 53683  97.2831  73.2096 0003043 112.8084 247.3466 15.05752372212338
STARLINK-4624           
1 53684U 22105AN  26195.62293249 -.00000242  00000+0 -12888-4 0  9996
2 53684  97.2835  73.1611 0002029  82.4118 277.7340 15.05658729212304
