OBJECT_NAME,OBJECT_ID,EPOCH,MEAN_MOTION,ECCENTRICITY,INCLINATION,RA_OF_ASC_NODE,ARG_OF_PERICENTER,MEAN_ANOMALY,EPHEMERIS_TYPE,CLASSIFICATION_TYPE,NORAD_CAT_ID,ELEMENT_SET_NO,REV_AT_EPOCH,BSTAR,MEAN_MOTION_DOT,MEAN_MOTION_DDOT
STARLINK-4388,2022-105D,2026-07-14T22:00:03.000096,15.74505694,.00011639,97.6012,82.5110,106.8890,146.4918,0,U,53651,999,578,-.58350327E-3,-.83825E-3,0
STARLINK-4374,2022-105E,2026-07-14T14:49:02.668800,15.05678725,.0001305,97.2841,73.1537,85.3598,274.7779,0,U,53652,999,21232,-.19016E-3,-.2801E-4,0
STARLINK-4390,2022-105F,2026-07-14T16:12:10.897632,15.53665590,.00040177,97.5999,80.2393,137.2627,222.8939,0,U,53653,999,21265,.45198886E-3,.28835E-3,0
STARLINK-4420,2022-105G,2026-07-14T16:10:44.890752,15.05654651,.00017618,97.2845,74.2841,90.6836,269.4593,0,U,53654,999,21240,-.22020983E-4,-.374E-5,0
STARLINK-4470,2022-105H,2026-07-14T22:00:03.000096,15.51439626,.00016572,97.6020,82.2960,75.4170,87.8897,0,U,53655,999,589,-.92278109E-2,-.509976E-2,0
STARLINK-4466,2022-105J,2026-07-14T15:48:52.282944,15.05654013,.0002483,97.2850,73.2313,89.2058,270.9454,0,U,53656,999,21233,-.18975456E-4,-.33E-5,0
STARLINK-4452,2022-105L,2026-07-14T15:10:56.589888,15.05654552,.00024171,97.2830,74.3321,81.4854,278.6648,0,U,53658,999,21240,-.4303203E-5,-.118E-5,0
STARLINK-4473,2022-105N,2026-07-14T15:36:54.234144,15.05654768,.00025534,97.2849,73.2299,87.9498,272.2022,0,U,53660,999,21233,.3626634E-5,-.4E-7,0
STARLINK-4472,2022-105P,2026-07-14T14:45:03.727872,15.05649318,.0001969,97.2838,73.1320,86.3747,273.7705,0,U,53661,999,21232,.10041E-3,.1393E-4,0
STARLINK-4357,2022-105Q,2026-07-14T22:00:03.000096,15.47565150,.00011864,97.6023,81.7330,72.3149,319.7878,0,U,53662,999,587,-.22309109E-1,-.1042664E-1,0
STARLINK-4457,2022-105R,2026-07-14T21:29:45.254688,15.05657582,.00021994,97.2849,74.5804,88.0190,272.1290,0,U,53663,999,21244,-.4398066E-5,-.12E-5,0
STARLINK-4471,2022-105S,2026-07-14T15:50:48.441696,15.05654818,.00024412,97.2835,74.2715,83.2434,276.9071,0,U,53664,999,21240,.11402177E-4,.108E-5,0
STARLINK-4334,2022-105T,2026-07-14T22:00:03.000096,15.61879642,.00014798,97.6042,82.0400,88.4453,261.8181,0,U,53665,999,591,-.30746854E-2,-.258307E-2,0
STARLINK-4406,2022-105V,2026-07-14T21:01:40.567872,15.36113878,.00023895,97.5992,80.3528,122.1253,238.0223,0,U,53667,999,21268,.61398212E-3,.21553E-3,0
STARLINK-4458,2022-105W,2026-07-14T22:00:03.000096,15.51117239,.00019938,97.6029,82.3126,88.2886,280.3700,0,U,53668,999,593,-.61626371E-2,-.343775E-2,0
STARLINK-4464,2022-105X,2026-07-14T22:00:03.000096,15.60437194,.0001195,97.6013,80.5268,71.0467,35.0271,0,U,53669,999,585,.20240616E-2,.169343E-2,0
STARLINK-4459,2022-105Y,2026-07-14T14:51:01.081728,15.05652948,.0001347,97.2840,74.3069,93.6938,266.4444,0,U,53670,999,21240,.74992E-4,.1026E-4,0
STARLINK-4440,2022-105Z,2026-07-14T16:08:48.899616,15.05659890,.00021336,97.2855,73.1741,96.6656,263.4814,0,U,53671,999,21233,.76909019E-4,.1054E-4,0
STARLINK-4428,2022-105AA,2026-07-14T15:24:56.422944,15.05652558,.00022878,97.2843,73.2024,86.0178,274.1312,0,U,53672,999,21233,-.30112435E-4,-.491E-5,0
STARLINK-4456,2022-105AB,2026-07-14T22:00:03.000096,15.59678862,.00010409,97.6022,79.5141,105.9597,83.0029,0,U,53673,999,572,.10450384E-1,.917669E-2,0
STARLINK-4620,2022-105AC,2026-07-14T15:32:54.725568,15.05650569,.00025855,97.2846,73.1905,86.2636,273.8887,0,U,53674,999,21233,-.48460717E-4,-.755E-5,0
STARLINK-4617,2022-105AD,2026-07-14T15:58:47.393184,15.05642253,.00020389,97.2852,74.3819,91.0718,269.0743,0,U,53675,999,21241,.47466654E-4,.628E-5,0
STARLINK-4621,2022-105AE,2026-07-14T15:05:00.224448,15.05657449,.00017361,97.2833,73.2066,93.3539,266.7887,0,U,53676,999,21233,-.11970881E-4,-.229E-5,0
STARLINK-4579,2022-105AF,2026-07-14T14:58:58.423584,15.05657749,.00022722,97.2839,74.2918,85.7478,274.4010,0,U,53677,999,21240,.11041407E-4,.103E-5,0
STARLINK-4632,2022-105AH,2026-07-14T15:46:51.368736,15.05646799,.00021186,97.2853,74.3927,91.0129,269.1342,0,U,53679,999,21241,.73982047E-4,.1011E-4,0
STARLINK-4630,2022-105AJ,2026-07-14T14:54:58.845888,15.05659614,.00020776,97.2841,74.2700,81.1356,279.0106,0,U,53680,999,21240,-.90877E-5,-.187E-5,0
STARLINK-4424,2022-105AK,2026-07-14T22:00:03.000096,15.82835826,.00013587,97.6003,82.0552,103.6001,312.8259,0,U,53681,999,593,.2109019E-2,.467804E-2,0
STARLINK-4438,2022-105AL,2026-07-14T15:22:53.582880,15.05652862,.00023076,97.2837,74.2371,78.2942,281.8545,0,U,53682,999,21240,-.25463575E-4,-.424E-5,0
STARLINK-4625,2022-105AM,2026-07-14T14:52:59.517984,15.05752372,.00030439,97.2831,73.2096,112.8084,247.3466,0,U,53683,999,21233,-.50351579E-3,-.7334E-4,0
STARLINK-4624,2022-105AN,2026-07-14T14:57:01.367136,15.05658729,.00020296,97.2835,73.1611,82.4118,277.7340,0,U,53684,999,21230,-.12888306E-4,-.242E-5,0
